{
  "type": "FeatureCollection",
  "features": [
    {"type":"Feature","properties":{"name":"Kenai","slug":"kenai","kind":"zone"},"geometry":{"type":"Polygon","coordinates":[[[-151.5676882,60.7366758],[-151.3469160,60.7368572],[-151.3937317,60.7261008],[-151.4101289,60.7191148],[-151.4014373,60.6935775],[-151.3878076,60.6759362],[-151.3632285,60.6544696],[-151.3492429,60.6322871],[-151.3298644,60.5809819],[-151.3050015,60.5630859],[-151.2833585,60.5553444],[-151.2621273,60.5486469],[-151.2327182,60.5406886],[-151.2266779,60.5250928],[-151.1731440,60.5212876],[-151.1252208,60.5459337],[-151.1731440,60.5212876],[-151.2266779,60.5250928],[-151.2327182,60.5406886],[-151.2621273,60.5486469],[-151.2730405,60.5276312],[-151.2803865,60.4860598],[-151.2826138,60.4673916],[-151.2884557,60.4284368],[-151.2950780,60.3997196],[-151.3021596,60.3860366],[-151.2890138,60.3424351],[-151.2621582,60.3172346],[-151.2475703,60.3102738],[-151.2222750,60.3056840],[-151.2475703,60.3102738],[-151.2621582,60.3172346],[-151.2890138,60.3424351],[-151.3021596,60.3860366],[-151.3218588,60.3828618],[-151.3527568,60.3753466],[-151.3819584,60.3429598],[-151.3816645,60.3176174],[-151.5995967,60.3174391],[-151.5676882,60.7366758]]]}}
    ,
    {"type":"Feature","properties":{"name":"Lower Inlet South","slug":"lower_inlet_south","kind":"zone"},"geometry":{"type":"Polygon","coordinates":[[[-151.5710751,60.3751679],[-151.3527568,60.3753466],[-151.4675938,60.1824602],[-151.6290098,60.0831595],[-151.6998027,60.0326754],[-151.7935463,59.8856007],[-151.8433034,59.7353228],[-151.4041742,59.6750709],[-151.6373241,59.6491266],[-151.4669234,59.6424097],[-151.5465474,59.6385074],[-151.5001532,59.6379875],[-151.5291233,59.6357842],[-151.4923374,59.6300155],[-151.4549495,59.6208577],[-151.4489685,59.6164695],[-151.4396240,59.6105027],[-151.4361317,59.6091295],[-151.4248518,59.6035425],[-151.3713133,59.5518838],[-151.3732553,59.5461827],[-151.5609226,59.4506606],[-151.5710751,60.3751679]]]}}
    ,
    {"type":"Feature","properties":{"name":"Ship Creek / Knik Arm / Anchorage","slug":"ship_creek_knik_arm_anchorage","kind":"zone"},"geometry":{"type":"Polygon","coordinates":[[[-149.7958923,61.0501897],[-149.8270671,61.0702701],[-149.8686609,61.0901281],[-149.9268614,61.1102239],[-149.9716155,61.1305650],[-149.9234689,61.2093600],[-149.8916513,61.2253725],[-149.8825525,61.2498793],[-149.8637985,61.2670324],[-149.8382770,61.2895950],[-149.8189027,61.3073970],[-149.8009818,61.3187581],[-149.9185563,61.3198466],[-149.9181032,61.2905041],[-149.9222257,61.2735680],[-149.9614696,61.2502319],[-150.0486695,61.2491436],[-149.9233488,61.2100046],[-150.0281811,61.1911934],[-150.0490272,61.1773396],[-150.0488381,61.1477858],[-149.9705297,61.1299173],[-149.9245010,61.1097138],[-149.8654364,61.0895569],[-149.8260286,61.0694978],[-149.7958923,61.0501897]]]}}
    ,
    {"type":"Feature","properties":{"name":"Northern Turnagain Arm","slug":"turnagain_arm_northern","kind":"zone"},"geometry":{"type":"Polygon","coordinates":[[[-149.8956907,60.9501879],[-149.8290968,60.9687547],[-149.7397115,61.0175752],[-149.6435683,60.9994750],[-149.5311968,60.9838916],[-149.4671907,60.9727474],[-149.3796517,60.9460508],[-149.3539654,60.8946491],[-149.4400256,60.9042512],[-149.5306776,60.9256969],[-149.6458563,60.9209726],[-149.7182679,60.9554544],[-149.8250628,60.9661930],[-149.9186612,60.9248332],[-149.8956907,60.9501879]]]}}
    ,
    {"type":"Feature","properties":{"name":"Mid Turnagain Arm","slug":"turnagain_arm_mid","kind":"zone"},"geometry":{"type":"Polygon","coordinates":[[[-149.3796517,60.9460508],[-149.2623142,60.9370152],[-149.1938707,60.9448624],[-149.0991900,60.9135708],[-149.0162893,60.8583638],[-149.0002884,60.8197676],[-149.0811245,60.8642041],[-149.1737297,60.8868840],[-149.2741072,60.8947429],[-149.3539654,60.8946491],[-149.3796517,60.9460508]]]}}
    ,
    {"type":"Feature","properties":{"name":"Upper Turnagain Arm","slug":"turnagain_arm_upper","kind":"zone"},"geometry":{"type":"Polygon","coordinates":[[[-149.1389043,60.9221044],[-149.0748797,60.9012904],[-149.0162893,60.8583638],[-149.0075211,60.8417766],[-149.0002884,60.8197676],[-149.0811245,60.8642041],[-149.1389043,60.9221044]]]}}
    ,
    {"type":"Feature","properties":{"name":"Southern Turnagain Arm","slug":"turnagain_arm_southern","kind":"zone"},"geometry":{"type":"Polygon","coordinates":[[[-149.0002884,60.8197676],[-149.0507943,60.8464221],[-149.1525402,60.8788877],[-149.2505924,60.8928346],[-149.3539654,60.8946491],[-149.4531003,60.9065769],[-149.5994917,60.9292085],[-149.6500379,60.9243665],[-149.7500253,60.9616105],[-149.8985768,60.9435137],[-149.9985696,60.8592498],[-150.0810529,60.8849857],[-150.1604463,60.8923767],[-150.2506542,60.9398556],[-150.6963396,60.9454367],[-150.7988679,60.8972366],[-150.8983541,60.8530529],[-151.0002995,60.8130895],[-151.1016559,60.7842395],[-151.1016559,60.9700000],[-149.0002884,60.9700000],[-149.0002884,60.8197676]]]}}
    ,
    {"type":"Feature","properties":{"name":"Susitna Delta","slug":"susitna_delta","kind":"zone"},"geometry":{"type":"Polygon","coordinates":[[[-150.01060,61.23728],[-150.21966,61.39668],[-150.52432,61.26504],[-150.48045,61.39975],[-150.50635,61.39370],[-150.60582,61.39919],[-150.62402,61.37363],[-150.65768,61.33724],[-150.67466,61.31459],[-150.71687,61.30845],[-150.75815,61.26564],[-151.49914,61.38022],[-151.49807,61.00398],[-151.48493,60.97552],[-150.64728,61.18136],[-150.74611,60.95599],[-150.65717,60.97193],[-150.59429,61.01403],[-150.50759,61.00551],[-150.45348,61.01640],[-150.18266,60.96603],[-150.02459,60.96688],[-150.02066,61.13971],[-150.01060,61.23728]]]}}
    ,
    {"type":"Feature","properties":{"name":"Entire Inlet","slug":"entire_inlet","kind":"zone"},"geometry":{"type":"Polygon","coordinates":[[[-154.0,59.0],[-149.0,59.0],[-149.0,61.5],[-154.0,61.5],[-154.0,59.0]]]}}
    ,
    {"type":"Feature","properties":{"name":"Kenai River","slug":"kenai_river","kind":"point_preset"},"geometry":{"type":"Point","coordinates":[-151.2621273,60.5486469]}}
    ,
    {"type":"Feature","properties":{"name":"Kasilof River","slug":"kasilof_river","kind":"point_preset"},"geometry":{"type":"Point","coordinates":[-151.3021596,60.3860366]}}
    ,
    {"type":"Feature","properties":{"name":"Ship Creek","slug":"ship_creek","kind":"point_preset"},"geometry":{"type":"Point","coordinates":[-149.9033944,61.2270402]}}
    ,
    {"type":"Feature","properties":{"name":"Mile 95.3 Pullout","slug":"mile_95_3_pullout","kind":"point_preset"},"geometry":{"type":"Point","coordinates":[-149.3625000,60.9286111]}}
    ,
    {"type":"Feature","properties":{"name":"Twentymile River","slug":"twentymile_river","kind":"point_preset"},"geometry":{"type":"Point","coordinates":[-149.0075211,60.8417766]}}
    ,
    {"type":"Feature","properties":{"name":"The Point (AWCC)","slug":"the_point_awcc","kind":"point_preset"},"geometry":{"type":"Point","coordinates":[-148.9837033,60.8247740]}}
    ,
    {"type":"Feature","properties":{"name":"Anchorage","slug":"anchorage","kind":"point_preset"},"geometry":{"type":"Point","coordinates":[-149.8948520,61.2163129]}}
  ]
}
